COMMENT,ORIGINATOR,NORAD_CAT_ID,OBJECT_NAME,OBJECT_TYPE,CLASSIFICATION_TYPE,INTLDES,EPOCH,EPOCH_MICROSECONDS,MEAN_MOTION,ECCENTRICITY,INCLINATION,RA_OF_ASC_NODE,ARG_OF_PERICENTER,MEAN_ANOMALY,EPHEMERIS_TYPE,ELEMENT_SET_NO,REV_AT_EPOCH,BSTAR,MEAN_MOTION_DOT,MEAN_MOTION_DDOT,FILE,TLE_LINE0,TLE_LINE1,TLE_LINE2,OBJECT_ID,OBJECT_NUMBER,SEMIMAJOR_AXIS,PERIOD,APOGEE,PERIGEE,DECAYED
"GENERATED VIA SPACETRACK.ORG API","18 SPCS","55091","SPACEBEE-164","PAYLOAD","U","23001CL","2023-05-26 17:45:22","577760","15.19100833","0.0016338","97.4775","207.0143","82.071","278.2378","0","999","2184","0.00061079","0.00012806","0","3917850","0 SPACEBEE-164","1 55091U 23001CL  23146.73984465  .00012806  00000-0  61079-3 0  9991","2 55091  97.4775 207.0143 0016338  82.0710 278.2378 15.19100833 21840","2023-001CL","55091","6886.694","94.793","519.810","497.307","0"
"GENERATED VIA SPACETRACK.ORG API","18 SPCS","55091","SPACEBEE-164","PAYLOAD","U","23001CL","2023-05-27 17:28:09","943104","15.19123829","0.0016227","97.4776","207.9923","78.6952","281.6105","0","999","2199","0.00057394","0.00012035","0","3918755","0 SPACEBEE-164","1 55091U 23001CL  23147.72789286  .00012035  00000-0  57394-3 0  9994","2 55091  97.4776 207.9923 0016227  78.6952 281.6105 15.19123829 21994","2023-001CL","55091","6886.624","94.791","519.664","497.314","0"
"GENERATED VIA SPACETRACK.ORG API","18 SPCS","55091","SPACEBEE-164","PAYLOAD","U","23001CL","2023-05-28 02:57:16","518240","15.19133526","0.0016188","97.4777","208.3835","77.4206","282.8838","0","999","2205","0.00058393","0.0001225","0","3918962","0 SPACEBEE-164","1 55091U 23001CL  23148.12310785  .00012250  00000-0  58393-3 0  9992","2 55091  97.4777 208.3835 0016188  77.4206 282.8838 15.19133526 22056","2023-001CL","55091","6886.595","94.791","519.608","497.312","0"
"GENERATED VIA SPACETRACK.ORG API","18 SPCS","55091","SPACEBEE-164","PAYLOAD","U","23001CL","2023-05-28 02:57:16","518240","15.19133526","0.0016188","97.4777","208.3835","77.4206","282.8838","0","999","2205","0.00058393","0.0001225","0","3919252","0 SPACEBEE-164","1 55091U 23001CL  23148.12310785  .00012250  00000-0  58393-3 0  9992","2 55091  97.4777 208.3835 0016188  77.4206 282.8838 15.19133526 22056","2023-001CL","55091","6886.595","94.791","519.608","497.312","0"
"GENERATED VIA SPACETRACK.ORG API","18 SPCS","55091","SPACEBEE-164","PAYLOAD","U","23001CL","2023-05-28 17:10:55","874208","15.1915321","0.0016195","97.4778","208.9701","75.3531","284.9498","0","999","2214","0.00073297","0.00015409","0","3919546","0 SPACEBEE-164","1 55091U 23001CL  23148.71592447  .00015409  00000-0  73297-3 0  9993","2 55091  97.4778 208.9701 0016195  75.3531 284.9498 15.19153210 22148","2023-001CL","55091","6886.536","94.790","519.553","497.248","0"
"GENERATED VIA SPACETRACK.ORG API","18 SPCS","55091","SPACEBEE-164","PAYLOAD","U","23001CL","2023-05-29 02:40:01","776288","15.1916469","0.0016186","97.4779","209.3615","74.2256","286.0761","0","999","2220","0.0007239","0.00015222","0","3920065","0 SPACEBEE-164","1 55091U 23001CL  23149.11113167  .00015222  00000-0  72390-3 0  9992","2 55091  97.4779 209.3615 0016186  74.2256 286.0761 15.19164690 22207","2023-001CL","55091","6886.501","94.789","519.512","497.219","0"
"GENERATED VIA SPACETRACK.ORG API","18 SPCS","55091","SPACEBEE-164","PAYLOAD","U","23001CL","2023-05-29 16:53:40","136928","15.19180524","0.0016176","97.4781","209.9484","72.3467","287.9533","0","999","2229","0.00064451","0.00013548","0","3920338","0 SPACEBEE-164","1 55091U 23001CL  23149.70393677  .00013548  00000-0  64451-3 0  9991","2 55091  97.4781 209.9484 0016176  72.3467 287.9533 15.19180524 22292","2023-001CL","55091","6886.453","94.788","519.457","497.178","0"
"GENERATED VIA SPACETRACK.ORG API","18 SPCS","55091","SPACEBEE-164","PAYLOAD","U","23001CL","2023-05-29 16:53:40","136928","15.19180524","0.0016176","97.4781","209.9484","72.3467","287.9533","0","999","2229","0.00064451","0.00013548","0","3920354","0 SPACEBEE-164","1 55091U 23001CL  23149.70393677  .00013548  00000-0  64451-3 0  9991","2 55091  97.4781 209.9484 0016176  72.3467 287.9533 15.19180524 22292","2023-001CL","55091","6886.453","94.788","519.457","497.178","0"
"GENERATED VIA SPACETRACK.ORG API","18 SPCS","55091","SPACEBEE-164","PAYLOAD","U","23001CL","2023-05-30 03:57:36","251424","15.19192806","0.0016146","97.4782","210.4052","70.9381","289.3601","0","999","2236","0.00060696","0.00012758","0","3920920","0 SPACEBEE-164","1 55091U 23001CL  23150.16500291  .00012758  00000-0  60696-3 0  9994","2 55091  97.4782 210.4052 0016146  70.9381 289.3601 15.19192806 22363","2023-001CL","55091","6886.416","94.787","519.400","497.162","0"
"GENERATED VIA SPACETRACK.ORG API","18 SPCS","55091","SPACEBEE-164","PAYLOAD","U","23001CL","2023-05-30 21:20:55","186368","15.19213442","0.0016097","97.4782","211.1225","68.7233","291.5719","0","999","2247","0.00064677","0.00013609","0","3921192","0 SPACEBEE-164","1 55091U 23001CL  23150.88952762  .00013609  00000-0  64677-3 0  9996","2 55091  97.4782 211.1225 0016097  68.7233 291.5719 15.19213442 22476","2023-001CL","55091","6886.353","94.786","519.303","497.134","0"
"GENERATED VIA SPACETRACK.ORG API","18 SPCS","55091","SPACEBEE-164","PAYLOAD","U","23001CL","2023-05-31 03:40:18","194304","15.1922262","0.001608","97.4782","211.3833","67.8576","292.4364","0","999","2251","0.00068137","0.00014345","0","3921495","0 SPACEBEE-164","1 55091U 23001CL  23151.15298836  .00014345  00000-0  68137-3 0  9995","2 55091  97.4782 211.3833 0016080  67.8576 292.4364 15.19222620 22514","2023-001CL","55091","6886.326","94.785","519.264","497.118","0"
"GENERATED VIA SPACETRACK.ORG API","18 SPCS","55091","SPACEBEE-164","PAYLOAD","U","23001CL","2023-05-31 16:19:03","870624","15.19239416","0.0016014","97.478","211.9049","66.1473","294.1437","0","999","2259","0.00073356","0.00015459","0","3922037","0 SPACEBEE-164","1 55091U 23001CL  23151.67990591  .00015459  00000-0  73356-3 0  9995","2 55091  97.4780 211.9049 0016014  66.1473 294.1437 15.19239416 22591","2023-001CL","55091","6886.275","94.784","519.168","497.112","0"
"GENERATED VIA SPACETRACK.ORG API","18 SPCS","55091","SPACEBEE-164","PAYLOAD","U","23001CL","2023-06-01 09:42:20","852064","15.19263453","0.0015923","97.4779","212.6222","63.7312","296.5556","0","999","2270","0.00080106","0.00016902","0","3922365","0 SPACEBEE-164","1 55091U 23001CL  23152.40440801  .00016902  00000-0  80106-3 0  9996","2 55091  97.4779 212.6222 0015923  63.7312 296.5556 15.19263453 22702","2023-001CL","55091","6886.202","94.783","519.032","497.102","0"
"GENERATED VIA SPACETRACK.ORG API","18 SPCS","55091","SPACEBEE-164","PAYLOAD","U","23001CL","2023-06-01 09:42:20","852064","15.19263453","0.0015923","97.4779","212.6222","63.7312","296.5556","0","999","2270","0.00080106","0.00016902","0","3922710","0 SPACEBEE-164","1 55091U 23001CL  23152.40440801  .00016902  00000-0  80106-3 0  9996","2 55091  97.4779 212.6222 0015923  63.7312 296.5556 15.19263453 22702","2023-001CL","55091","6886.202","94.783","519.032","497.102","0"
"GENERATED VIA SPACETRACK.ORG API","18 SPCS","55091","SPACEBEE-164","PAYLOAD","U","23001CL","2023-06-02 09:24:58","785120","15.19293834","0.0015822","97.4778","213.6002","60.3077","299.973","0","999","2285","0.00071937","0.00015181","0","3923342","0 SPACEBEE-164","1 55091U 23001CL  23153.39234705  .00015181  00000-0  71937-3 0  9999","2 55091  97.4778 213.6002 0015822  60.3077 299.9730 15.19293834 22850","2023-001CL","55091","6886.111","94.781","518.871","497.080","0"
"GENERATED VIA SPACETRACK.ORG API","18 SPCS","55091","SPACEBEE-164","PAYLOAD","U","23001CL","2023-06-02 17:19:11","43840","15.19305415","0.0015797","97.4778","213.9264","59.1868","301.0919","0","999","2290","0.00075597","0.00015963","0","3923555","0 SPACEBEE-164","1 55091U 23001CL  23153.72165560  .00015963  00000-0  75597-3 0  9992","2 55091  97.4778 213.9264 0015797  59.1868 301.0919 15.19305415 22907","2023-001CL","55091","6886.076","94.780","518.818","497.063","0"
"GENERATED VIA SPACETRACK.ORG API","18 SPCS","55091","SPACEBEE-164","PAYLOAD","U","23001CL","2023-06-02 17:19:11","43840","15.19305415","0.0015797","97.4778","213.9264","59.1868","301.0919","0","999","2290","0.00075597","0.00015963","0","3923570","0 SPACEBEE-164","1 55091U 23001CL  23153.72165560  .00015963  00000-0  75597-3 0  9992","2 55091  97.4778 213.9264 0015797  59.1868 301.0919 15.19305415 22907","2023-001CL","55091","6886.076","94.780","518.818","497.063","0"
"GENERATED VIA SPACETRACK.ORG API","18 SPCS","55091","SPACEBEE-164","PAYLOAD","U","23001CL","2023-06-03 02:48:13","493376","15.19318296","0.0015755","97.4778","214.3176","57.9243","302.3519","0","999","2296","0.00077406","0.00016354","0","3924076","0 SPACEBEE-164","1 55091U 23001CL  23154.11682284  .00016354  00000-0  77406-3 0  9999","2 55091  97.4778 214.3176 0015755  57.9243 302.3519 15.19318296 22968","2023-001CL","55091","6886.037","94.779","518.751","497.053","0"
"GENERATED VIA SPACETRACK.ORG API","18 SPCS","55091","SPACEBEE-164","PAYLOAD","U","23001CL","2023-06-03 15:26:56","378112","15.19331295","0.0015725","97.4776","214.839","56.192","304.0809","0","999","2304","0.00066842","0.00014113","0","3924324","0 SPACEBEE-164","1 55091U 23001CL  23154.64370808  .00014113  00000-0  66842-3 0  9996","2 55091  97.4776 214.8390 0015725  56.1920 304.0809 15.19331295 23044","2023-001CL","55091","6885.997","94.779","518.691","497.034","0"
"GENERATED VIA SPACETRACK.ORG API","18 SPCS","55091","SPACEBEE-164","PAYLOAD","U","23001CL","2023-06-04 02:30:48","538080","15.1934551","0.0015713","97.4777","215.2957","54.6873","305.5828","0","999","2311","0.00071245","0.00015056","0","3924603","0 SPACEBEE-164","1 55091U 23001CL  23155.10472845  .00015056  00000-0  71245-3 0  9992","2 55091  97.4777 215.2957 0015713  54.6873 305.5828 15.19345510 23116","2023-001CL","55091","6885.954","94.778","518.639","497.000","0"
